GORIZONT 1 [-]          
1 11158U 78118A   21028.90535736 -.00000176  00000+0  00000+0 0  9995
2 11158  11.6526 225.9529 3573280 253.2490  64.9016  1.00245333103232
GORIZONT 2 [-]          
1 11440U 79062A   21030.05847727 -.00000107  00000+0  00000+0 0  9997
2 11440  10.4206 307.8180 0003728 336.0085 303.9075  1.00306814118322
GORIZONT 3 [-]          
1 11648U 79105A   21030.59918853 -.00000338  00000+0  00000+0 0  9999
2 11648  10.5642 309.1304 0010537 199.5633 306.5631  1.00276076102794
GORIZONT 4 [-]          
1 11841U 80049A   21029.81368701  .00000047  00000+0  00000+0 0  9993
2 11841  11.6755 314.4034 0003678   5.2236 168.2569  0.98627366214149
GORIZONT 5 [-]          
1 13092U 82020A   21030.33835706 -.00000179  00000+0  00000+0 0  9994
2 13092  12.5971 319.4711 0031094 197.6999  53.3243  0.98532944102248
GORIZONT 6 [-]          
1 13624U 82103A   21030.15756500 -.00000245  00000+0  00000+0 0  9995
2 13624  11.4957 319.4046 0000986  62.5347 126.8815  1.00238689101259
GORIZONT 7 [-]          
1 14160U 83066A   21030.22928575 -.00000095  00000+0  00000+0 0  9994
2 14160  13.0288 328.1802 0011501 318.1663 221.2050  0.98347644135439
GORIZONT 8 [-]          
1 14532U 83118A   21030.15257713 -.00000192  00000+0  00000+0 0  9994
2 14532  13.1694 329.9317 0027559 130.6049  65.1203  0.98271393101209
GORIZONT 9 [-]          
1 14940U 84041A   21029.88314135  .00000081  00000+0  00000+0 0  9999
2 14940  12.3746 328.1631 0001902 220.5022 313.2325  1.00252954102248
GORIZONT 10 [-]         
1 15144U 84078A   21030.39446751 -.00000240  00000+0  00000+0 0  9992
2 15144  12.4520 329.1482 0003080   9.9853 258.1798  1.00291301134886
GORIZONT 11 [-]         
1 15484U 85007A   21030.32808374 -.00000118  00000+0  00000+0 0  9992
2 15484  12.5915 331.0575 0002874  64.0925 198.4947  1.00284843132938
GORIZONT 12 [-]         
1 16769U 86044A   21029.69080856  .00000120  00000+0  00000+0 0  9998
2 16769  13.1077 336.2522 0002720 340.0703 106.3811  1.00310006127563
GORIZONT 13 [-]         
1 17083U 86090A   21030.40198528 -.00000059  00000+0  00000+0 0  9998
2 17083  14.8534 343.0327 0017218 332.2262  41.0933  0.96725166 99658
GORIZONT 14 [-]         
1 17969U 87040A   21029.93104682 -.00000059  00000+0  00000+0 0  9991
2 17969  13.9844 334.7689 0027816 157.2096  19.1712  0.97658074100678
GORIZONT 15 [-]         
1 19017U 88028A   21030.65091343 -.00000165  00000+0  00000+0 0  9992
2 19017  15.0613 346.0209 0033203 138.6379  62.5710  0.97829340100293
GORIZONT 16 [-]         
1 19397U 88071A   21030.64227377 -.00000082  00000+0  00000+0 0  9996
2 19397  13.9279 344.7571 0016675  35.0020 152.9993  0.99989485118603
GORIZONT 17 [-]         
1 19765U 89004A   21030.26653554 -.00000237  00000+0  00000+0 0  9992
2 19765  14.3998 347.9720 0020680 109.2448 251.3158  0.99066751116118
GORIZONT 18 [-]         
1 20107U 89052A   21030.64421955 -.00000170  00000+0  00000+0 0  9993
2 20107  14.4087 349.2539 0036407 307.8950 238.5725  0.99405197114892
GORIZONT 19 [-]         
1 20263U 89081A   21029.83392997 -.00000363  00000+0  00000+0 0  9994
2 20263  14.1521 348.5273 0002820 315.4501 239.4212  1.00268572 27645
GORIZONT 20 [-]         
1 20659U 90054A   21028.89282778 -.00000061  00000+0  00000+0 0  9990
2 20659  14.5173 351.4075 0003700 138.6554  31.8403  1.00223204111985
GORIZONT 21 [-]         
1 20923U 90094A   21030.60171383  .00000083  00000+0  00000+0 0  9992
2 20923  14.5063 352.1886 0001495 240.4223 305.2961  1.00222302110758
GORIZONT 22 [-]         
1 20953U 90102A   21030.14145743  .00000005  00000+0  00000+0 0  9999
2 20953  14.4600 352.5186 0005906 356.1584 194.9882  1.00288945110671
GORIZONT 23 [-]         
1 21533U 91046A   21029.52263021 -.00000051  00000+0  00000+0 0  9994
2 21533  15.1196 356.5320 0007019 323.1025 271.3277  0.98906821 27254
GORIZONT 24 [-]         
1 21759U 91074A   21030.54322700 -.00000015  00000+0  00000+0 0  9999
2 21759  15.2248 358.3370 0015387 219.7346 337.4485  0.98442355105621
GORIZONT 25 [-]         
1 21922U 92017A   21030.63989847 -.00000161  00000+0  00000+0 0  9992
2 21922  14.7785 357.7931 0029216  59.5542 108.6865  0.99860275105337
GORIZONT 26 [-]         
1 22041U 92043A   21030.57375797 -.00000030  00000+0  00000+0 0  9995
2 22041  14.8977 359.6870 0028719 226.6354 308.7757  0.99244674103983
GORIZONT 27 [-]         
1 22245U 92082A   21030.51466711 -.00000015  00000+0  00000+0 0  9998
2 22245  14.8202 359.4667 0015737 351.1414 207.5626  1.00146359107449
GORIZONT 28 [-]         
1 22880U 93069A   21030.47028933  .00000071  00000+0  00000+0 0  9995
2 22880  14.8584   3.1722 0031472 112.8431 247.3045  0.99646966 99552
GORIZONT 29 [-]         
1 22907U 93072A   21030.46550106 -.00000220  00000+0  00000+0 0  9997
2 22907  14.7822   2.7123 0013811 332.8882 240.1674  1.00120560 99501
GORIZONT 30 [-]         
1 23108U 94030A   21030.25841877 -.00000018  00000+0  00000+0 0  9996
2 23108  14.7705   3.6485 0002140 337.4767 241.7576  1.00297726 97765
GORIZONT 31 [-]         
1 23775U 96005A   21030.39955544 -.00000293  00000+0  00000+0 0  9997
2 23775  14.5121   9.6585 0015840 191.6834  25.6890  0.99894320 91434
GORIZONT 32 [-]         
1 23880U 96034A   21030.53981644  .00000091  00000+0  00000+0 0  9997
2 23880  14.4453  10.2088 0011662 337.7888  28.8420  1.00145636 90361
GORIZONT 33 [-]         
1 26372U 00029A   21030.64852146  .00000022  00000+0  00000+0 0  9995
2 26372  12.8587  20.9320 0003964  13.1056 147.9022  1.00278853 75738
